[{"OBJECT_NAME":"STARLINK-32154","OBJECT_ID":"2024-131X","EPOCH":"2026-03-09T22:57:34.881408","MEAN_MOTION":15.30189323,"ECCENTRICITY":0.0001341,"INCLINATION":53.1609,"RA_OF_ASC_NODE":50.8892,"ARG_OF_PERICENTER":79.5348,"MEAN_ANOMALY":280.5804,"EPHEMERIS_TYPE":0,"CLASSIFICATION_TYPE":"U","NORAD_CAT_ID":60276,"ELEMENT_SET_NO":999,"REV_AT_EPOCH":9176,"BSTAR":6.3718041e-5,"MEAN_MOTION_DOT":1.528e-5,"MEAN_MOTION_DDOT":0},{"OBJECT_NAME":"SCS-01 B","OBJECT_ID":"2025-100B","EPOCH":"2026-03-09T21:49:11.508672","MEAN_MOTION":15.3317485,"ECCENTRICITY":0.00088698,"INCLINATION":97.3706,"RA_OF_ASC_NODE":145.9041,"ARG_OF_PERICENTER":288.6157,"MEAN_ANOMALY":71.4122,"EPHEMERIS_TYPE":0,"CLASSIFICATION_TYPE":"U","NORAD_CAT_ID":63983,"ELEMENT_SET_NO":999,"REV_AT_EPOCH":4567,"BSTAR":0.00098809397,"MEAN_MOTION_DOT":0.00031724,"MEAN_MOTION_DDOT":0}]
